IRIDIUM 136             
1 42962U 17061H   23353.70461464  .00000356  00000+0  12016-3 0  9992
2 42962  86.3973  45.7435 0002277  99.3920 260.7533 14.34218392324337
